NORAD_CAT_ID,OBJECT_NAME,OBJECT_TYPE,EPOCH,MEAN_MOTION,ECCENTRICITY,INCLINATION,RA_OF_ASC_NODE,ARG_OF_PERICENTER,MEAN_ANOMALY,BSTAR,MEAN_MOTION_DOT,MEAN_MOTION_DDOT,TLE_LINE0,TLE_LINE1,TLE_LINE2,SEMIMAJOR_AXIS,PERIOD,APOGEE,PERIGEE,DECAYED
54052.0,STARLINK-5189,PAYLOAD,2023-03-14 13:17:02,15.08865876,0.0001461,53.2187,162.1994,93.2201,266.8958,-0.00022748,-3.909e-05,0.0,0 STARLINK-5189,1 54052U 22136B   23073.55349756 -.00003909  00000-0 -22748-3 0  9998,2 54052  53.2187 162.1994 0001461  93.2201 266.8958 15.08865876 23165,6917.801,95.436,540.677,538.656,0.0
54052.0,STARLINK-5189,PAYLOAD,2023-03-14 18:03:10,15.08894776,0.0001637,53.2182,161.3117,109.2551,250.8618,-0.00037421,-6.248e-05,0.0,0 STARLINK-5189,1 54052U 22136B   23073.75220341 -.00006248  00000-0 -37421-3 0  9991,2 54052  53.2182 161.3117 0001637 109.2551 250.8618 15.08894776 23199,6917.713,95.434,540.71,538.446,0.0
54052.0,STARLINK-5189,PAYLOAD,2023-03-15 05:10:53,15.08846687,0.0001345,53.2185,159.2259,98.2092,261.9053,7.8233e-06,-1.63e-06,0.0,0 STARLINK-5189,1 54052U 22136B   23074.21589821 -.00000163  00000-0  78233-5 0  9991,2 54052  53.2185 159.2259 0001345  98.2092 261.9053 15.08846687 23260,6917.86,95.437,540.655,538.794,0.0
54052.0,STARLINK-5189,PAYLOAD,2023-03-15 11:32:24,15.08862256,0.0001332,53.2185,158.0383,75.4331,284.6809,0.00015803,2.23e-05,0.0,0 STARLINK-5189,1 54052U 22136B   23074.48084064  .00002230  00000-0  15803-3 0  9997,2 54052  53.2185 158.0383 0001332  75.4331 284.6809 15.08862256 23300,6917.812,95.436,540.599,538.756,0.0
54052.0,STARLINK-5189,PAYLOAD,2023-03-15 13:07:47,15.08861017,0.0001298,53.2182,157.741,77.3157,282.798,0.00017782,2.545e-05,0.0,0 STARLINK-5189,1 54052U 22136B   23074.54707875  .00002545  00000-0  17782-3 0  9993,2 54052  53.2182 157.7410 0001298  77.3157 282.7980 15.08861017 22832,6917.816,95.436,540.579,538.783,0.0
54052.0,STARLINK-5189,PAYLOAD,2023-03-16 05:01:41,15.08825768,0.0001184,53.2182,154.7672,99.1931,260.9195,-0.00022778,-3.91e-05,0.0,0 STARLINK-5189,1 54052U 22136B   23075.20951127 -.00003910  00000-0 -22778-3 0  9998,2 54052  53.2182 154.7672 0001184  99.1931 260.9195 15.08825768 23419,6917.924,95.438,540.608,538.97,0.0
54052.0,STARLINK-5189,PAYLOAD,2023-03-16 11:23:13,15.08838916,0.0001193,53.2182,153.5778,98.6398,261.4729,-8.2711e-05,-1.604e-05,0.0,0 STARLINK-5189,1 54052U 22136B   23075.47445837 -.00001604  00000-0 -82711-4 0  9995,2 54052  53.2182 153.5778 0001193  98.6398 261.4729 15.08838916 23456,6917.884,95.438,540.574,538.923,0.0
54052.0,STARLINK-5189,PAYLOAD,2023-03-16 12:58:36,15.08841953,0.0001171,53.2182,153.2806,101.1121,259.0003,-8.3101e-05,-1.61e-05,0.0,0 STARLINK-5189,1 54052U 22136B   23075.54069644 -.00001610  00000-0 -83101-4 0  9992,2 54052  53.2182 153.2806 0001171 101.1121 259.0003 15.08841953 22985,6917.874,95.437,540.55,538.929,0.0
54052.0,STARLINK-5189,PAYLOAD,2023-03-16 16:09:21,15.08846881,0.0001178,53.2182,152.6861,95.3134,264.7993,-1.5062e-05,-5.28e-06,0.0,0 STARLINK-5189,1 54052U 22136B   23075.67317067 -.00000528  00000-0 -15062-4 0  9999,2 54052  53.2182 152.6861 0001178  95.3134 264.7993 15.08846881 23486,6917.859,95.437,540.539,538.909,0.0
54052.0,STARLINK-5189,PAYLOAD,2023-03-17 04:52:29,15.08822244,0.0001413,53.2178,150.3076,82.4462,277.6691,-0.00028117,-4.758e-05,0.0,0 STARLINK-5189,1 54052U 22136B   23076.20312070 -.00004758  00000-0 -28117-3 0  9991,2 54052  53.2178 150.3076 0001413  82.4462 277.6691 15.08822244 23561,6917.935,95.439,540.777,538.822,0.0
54052.0,STARLINK-5189,PAYLOAD,2023-03-17 11:14:02,15.08825282,0.0001369,53.2178,149.1181,82.8187,277.2961,-0.00026281,-4.466e-05,0.0,0 STARLINK-5189,1 54052U 22136B   23076.46808037 -.00004466  00000-0 -26281-3 0  9998,2 54052  53.2178 149.1181 0001369  82.8187 277.2961 15.08825282 23125,6917.925,95.438,540.737,538.843,0.0
54052.0,STARLINK-5189,PAYLOAD,2023-03-17 14:24:48,15.0882584,0.0001389,53.2177,148.523,84.0584,276.0567,-0.00026295,-4.469e-05,0.0,0 STARLINK-5189,1 54052U 22136B   23076.60056120 -.00004469  00000-0 -26295-3 0  9990,2 54052  53.2177 148.5230 0001389  84.0584 276.0567 15.08825840 23140,6917.924,95.438,540.75,538.828,0.0
54052.0,STARLINK-5189,PAYLOAD,2023-03-18 04:43:16,15.08818226,0.0001548,53.2177,145.8462,96.1321,263.9847,0.00011242,1.501e-05,0.0,0 STARLINK-5189,1 54052U 22136B   23077.19671547  .00001501  00000-0  11242-3 0  9999,2 54052  53.2177 145.8462 0001548  96.1321 263.9847 15.08818226 23716,6917.947,95.439,540.883,538.741,0.0
54052.0,STARLINK-5189,PAYLOAD,2023-03-18 11:04:46,15.08842973,0.0001133,53.2176,144.6568,86.3536,273.7585,0.00029147,4.354e-05,0.0,0 STARLINK-5189,1 54052U 22136B   23077.46165183  .00004354  00000-0  29147-3 0  9995,2 54052  53.2176 144.6568 0001133  86.3536 273.7585 15.08842973 23756,6917.871,95.437,540.52,538.953,0.0
54052.0,STARLINK-5189,PAYLOAD,2023-03-18 14:15:32,15.08848423,0.0001168,53.2177,144.0624,83.649,276.4635,0.00025083,3.707e-05,0.0,0 STARLINK-5189,1 54052U 22136B   23077.59412941  .00003707  00000-0  25083-3 0  9992,2 54052  53.2177 144.0624 0001168  83.6490 276.4635 15.08848423 23292,6917.855,95.437,540.528,538.912,0.0
54052.0,STARLINK-5189,PAYLOAD,2023-03-19 04:34:02,15.08823488,0.0001099,53.2172,141.3863,83.749,276.3628,0.00018778,2.701e-05,0.0,0 STARLINK-5189,1 54052U 22136B   23078.19030803  .00002701  00000-0  18778-3 0  9998,2 54052  53.2172 141.3863 0001099  83.7490 276.3628 15.08823488 23864,6917.931,95.439,540.556,539.036,0.0
54052.0,STARLINK-5189,PAYLOAD,2023-03-19 12:30:57,15.08841791,0.0001182,53.2178,139.8997,81.936,278.1766,0.00017852,2.555e-05,0.0,0 STARLINK-5189,1 54052U 22136B   23078.52149820  .00002555  00000-0  17852-3 0  9994,2 54052  53.2178 139.8997 0001182  81.9360 278.1766 15.08841791 23432,6917.875,95.437,540.558,538.922,0.0
54052.0,STARLINK-5189,PAYLOAD,2023-03-19 14:06:20,15.08843086,0.0001188,53.2177,139.6019,82.4389,277.6738,0.00018438,2.648e-05,0.0,0 STARLINK-5189,1 54052U 22136B   23078.58773691  .00002648  00000-0  18438-3 0  9993,2 54052  53.2177 139.6019 0001188  82.4389 277.6738 15.08843086 23923,6917.871,95.437,540.558,538.914,0.0
54052.0,STARLINK-5189,PAYLOAD,2023-03-19 20:27:54,15.08831325,0.0001925,53.2185,138.4118,79.6804,280.4405,-1.2122e-05,-4.81e-06,0.0,0 STARLINK-5189,1 54052U 22136B   23078.85271368 -.00000481  00000-0 -12122-4 0  9997,2 54052  53.2185 138.4118 0001925  79.6804 280.4405 15.08831325 23968,6917.907,95.438,541.104,538.44,0.0
54052.0,STARLINK-5189,PAYLOAD,2023-03-20 07:35:35,15.08843378,0.0001255,53.2174,136.3314,93.507,266.6066,-0.00012749,-2.316e-05,0.0,0 STARLINK-5189,1 54052U 22136B   23079.31638807 -.00002316  00000-0 -12749-3 0  9997,2 54052  53.2174 136.3314 0001255  93.5070 266.6066 15.08843378 24036,6917.87,95.437,540.603,538.867,0.0
54052.0,STARLINK-5189,PAYLOAD,2023-03-20 12:21:44,15.08851473,0.0001227,53.2179,135.4398,88.5159,271.5974,-0.00013692,-2.467e-05,0.0,0 STARLINK-5189,1 54052U 22136B   23079.51510218 -.00002467  00000-0 -13692-3 0  9999,2 54052  53.2179 135.4398 0001227  88.5159 271.5974 15.08851473 24065,6917.845,95.437,540.559,538.862,0.0
54052.0,STARLINK-5189,PAYLOAD,2023-03-20 20:18:40,15.08849222,0.0001256,53.2181,133.9533,84.2888,275.8247,-0.00015804,-2.803e-05,0.0,0 STARLINK-5189,1 54052U 22136B   23079.84630276 -.00002803  00000-0 -15804-3 0  9993,2 54052  53.2181 133.9533 0001256  84.2888 275.8247 15.08849222 23637,6917.852,95.437,540.586,538.848,0.0
54052.0,STARLINK-5189,PAYLOAD,2023-03-21 07:26:23,15.08837212,0.0001231,53.2187,131.8721,98.0447,262.0685,-6.6713e-05,-1.349e-05,0.0,0 STARLINK-5189,1 54052U 22136B   23080.30998853 -.00001349  00000-0 -66713-4 0  9994,2 54052  53.2187 131.8721 0001231  98.0447 262.0685 15.08837212 24187,6917.889,95.438,540.606,538.902,0.0
54052.0,STARLINK-5189,PAYLOAD,2023-03-21 09:01:46,15.08838053,0.0001281,53.2189,131.5751,98.9086,261.2051,-5.8159e-05,-1.213e-05,0.0,0 STARLINK-5189,1 54052U 22136B   23080.37622773 -.00001213  00000-0 -58159-4 0  9991,2 54052  53.2189 131.5751 0001281  98.9086 261.2051 15.08838053 23712,6917.886,95.438,540.638,538.865,0.0
54052.0,STARLINK-5189,PAYLOAD,2023-03-21 20:09:27,15.08840823,0.0001189,53.2184,129.4931,92.6816,267.4312,-7.6488e-05,-1.505e-05,0.0,0 STARLINK-5189,1 54052U 22136B   23080.83990685 -.00001505  00000-0 -76488-4 0  9991,2 54052  53.2184 129.4931 0001189  92.6816 267.4312 15.08840823 23785,6917.878,95.438,540.565,538.92,0.0
54052.0,STARLINK-5189,PAYLOAD,2023-03-22 04:06:24,15.08825852,0.0001376,53.2191,128.0071,101.0429,259.0718,-1.0044e-05,-4.48e-06,0.0,0 STARLINK-5189,1 54052U 22136B   23081.17111640 -.00000448  00000-0 -10044-4 0  9996,2 54052  53.2191 128.0071 0001376 101.0429 259.0718 15.08825852 24318,6917.924,95.438,540.741,538.837,0.0
54052.0,STARLINK-5189,PAYLOAD,2023-03-22 12:03:19,15.08837517,0.000127,53.2194,126.5198,99.224,260.8895,5.459e-05,5.81e-06,0.0,0 STARLINK-5189,1 54052U 22136B   23081.50230802  .00000581  00000-0  54590-4 0  9995,2 54052  53.2194 126.5198 0001270  99.2240 260.8895 15.08837517 24368,6917.888,95.438,540.632,538.874,0.0
54052.0,STARLINK-5189,PAYLOAD,2023-03-22 20:00:15,15.08839635,0.0001389,53.2183,125.0323,90.8483,269.2668,2.1305e-05,5.1e-07,0.0,0 STARLINK-5189,1 54052U 22136B   23081.83350844  .00000051  00000-0  21305-4 0  9990,2 54052  53.2183 125.0323 0001389  90.8483 269.2668 15.08839635 23933,6917.882,95.438,540.707,538.786,0.0
54052.0,STARLINK-5189,PAYLOAD,2023-03-23 10:18:42,15.08845859,0.0001394,53.2187,122.356,93.9216,266.1936,8.4936e-05,1.064e-05,0.0,0 STARLINK-5189,1 54052U 22136B   23082.42966129  .00001064  00000-0  84936-4 0  9999,2 54052  53.2187 122.3560 0001394  93.9216 266.1936 15.08845859 24507,6917.862,95.437,540.692,538.763,0.0
54052.0,STARLINK-5189,PAYLOAD,2023-03-23 19:51:01,15.08843343,0.0001302,53.218,120.5711,93.2465,266.8676,6.7885e-05,7.93e-06,0.0,0 STARLINK-5189,1 54052U 22136B   23082.82710199  .00000793  00000-0  67885-4 0  9999,2 54052  53.2180 120.5711 0001302  93.2465 266.8676 15.08843343 24083,6917.87,95.437,540.636,538.834,0.0
